start=new Date('2022-08-14T00:00:00.000Z').valueOf();
sats=[{"MEAN_MOTION_DOT":"0.00000844","CLASSIFICATION_TYPE":"U","TIME_SYSTEM":"UTC","OBJECT_ID":"2020-055AS","PERIAPSIS":"546.065","PERIOD":"95.592","TLE_LINE1":"1 46067U 20055AS  22225.92553180  .00000844  00000-0  75542-4 0  9994","MEAN_MOTION":"15.06395520","SITE":"AFETR","RCS_SIZE":"LARGE","COUNTRY_CODE":"US","REV_AT_EPOCH":"11280","BSTAR":"0.00007554200000","EPOCH":"2022-08-13T22:12:45.947520","INCLINATION":"53.0540","OBJECT_TYPE":"PAYLOAD","MEAN_ANOMALY":"291.5810","APOAPSIS":"548.389","ARG_OF_PERICENTER":"68.5358","SEMIMAJOR_AXIS":"6925.362","TLE_LINE2":"2 46067  53.0540 189.4359 0001678  68.5358 291.5810 15.06395520112802","REF_FRAME":"TEME","OBJECT_NAME":"STARLINK-1529","CENTER_NAME":"EARTH","RA_OF_ASC_NODE":"189.4359","MEAN_ELEMENT_THEORY":"SGP4","LAUNCH_DATE":"2020-08-07","ELEMENT_SET_NO":"999","EPHEMERIS_TYPE":"0","MEAN_MOTION_DDOT":"0.0000000000000","GP_ID":"210160651","FILE":"3535825","ECCENTRICITY":"0.00016780","DECAY_DATE":null,"NORAD_CAT_ID":"46067"},{"NORAD_CAT_ID":"46068","GP_ID":"210135194","MEAN_MOTION_DDOT":"0.0000000000000","EPHEMERIS_TYPE":"0","DECAY_DATE":null,"FILE":"3535824","ECCENTRICITY":"0.00018030","MEAN_ELEMENT_THEORY":"SGP4","ELEMENT_SET_NO":"999","LAUNCH_DATE":"2020-08-07","SEMIMAJOR_AXIS":"6925.371","TLE_LINE2":"2 46068  53.0548 191.7714 0001803  56.2157 303.9003 15.06392737112723","REF_FRAME":"TEME","APOAPSIS":"548.484","ARG_OF_PERICENTER":"56.2157","MEAN_ANOMALY":"303.9003","RA_OF_ASC_NODE":"191.7714","OBJECT_NAME":"STARLINK-1532","CENTER_NAME":"EARTH","INCLINATION":"53.0548","OBJECT_TYPE":"PAYLOAD","REV_AT_EPOCH":"11272","EPOCH":"2022-08-13T09:44:22.267392","BSTAR":"0.00008145100000","TLE_LINE1":"1 46068U 20055AT  22225.40581328  .00000932  00000-0  81451-4 0  9997","MEAN_MOTION":"15.06392737","PERIOD":"95.593","RCS_SIZE":"LARGE","COUNTRY_CODE":"US","SITE":"AFETR","TIME_SYSTEM":"UTC","OBJECT_ID":"2020-055AT","MEAN_MOTION_DOT":"0.00000932","CLASSIFICATION_TYPE":"U","PERIAPSIS":"545.987"},{"CLASSIFICATION_TYPE":"U","MEAN_MOTION_DOT":"0.00000233","TIME_SYSTEM":"UTC","OBJECT_ID":"2020-055AU","PERIAPSIS":"546.191","PERIOD":"95.592","MEAN_MOTION":"15.06395484","TLE_LINE1":"1 46069U 20055AU  22225.88593408  .00000233  00000-0  34540-4 0  9993","SITE":"AFETR","COUNTRY_CODE":"US","RCS_SIZE":"LARGE","REV_AT_EPOCH":"11280","BSTAR":"0.00003454000000","EPOCH":"2022-08-13T21:15:44.704512","OBJECT_TYPE":"PAYLOAD","INCLINATION":"53.0557","APOAPSIS":"548.263","MEAN_ANOMALY":"285.2331","ARG_OF_PERICENTER":"74.8823","TLE_LINE2":"2 46069  53.0557 189.6283 0001496  74.8823 285.2331 15.06395484112802","REF_FRAME":"TEME","SEMIMAJOR_AXIS":"6925.362","CENTER_NAME":"EARTH","OBJECT_NAME":"STARLINK-1533","RA_OF_ASC_NODE":"189.6283","MEAN_ELEMENT_THEORY":"SGP4","LAUNCH_DATE":"2020-08-07","ELEMENT_SET_NO":"999","EPHEMERIS_TYPE":"0","MEAN_MOTION_DDOT":"0.0000000000000","GP_ID":"210161653","ECCENTRICITY":"0.00014960","FILE":"3535825","DECAY_DATE":null,"NORAD_CAT_ID":"46069"},{"NORAD_CAT_ID":"46070","GP_ID":"210160402","EPHEMERIS_TYPE":"0","MEAN_MOTION_DDOT":"0.0000000000000","DECAY_DATE":null,"ECCENTRICITY":"0.00016190","FILE":"3535825","MEAN_ELEMENT_THEORY":"SGP4","ELEMENT_SET_NO":"999","LAUNCH_DATE":"2020-08-07","TLE_LINE2":"2 46070  53.0528 189.8604 0001619  81.7515 278.3657 15.06402523112798","REF_FRAME":"TEME","SEMIMAJOR_AXIS":"6925.341","ARG_OF_PERICENTER":"81.7515","APOAPSIS":"548.327","MEAN_ANOMALY":"278.3657","RA_OF_ASC_NODE":"189.8604","OBJECT_NAME":"STARLINK-1536","CENTER_NAME":"EARTH","OBJECT_TYPE":"PAYLOAD","INCLINATION":"53.0528","REV_AT_EPOCH":"11279","EPOCH":"2022-08-13T20:01:26.087808","BSTAR":"0.00010625000000","MEAN_MOTION":"15.06402523","TLE_LINE1":"1 46070U 20055AV  22225.83432972  .00001301  00000-0  10625-3 0  9992","PERIOD":"95.592","COUNTRY_CODE":"US","RCS_SIZE":"LARGE","SITE":"AFETR","OBJECT_ID":"2020-055AV","TIME_SYSTEM":"UTC","CLASSIFICATION_TYPE":"U","MEAN_MOTION_DOT":"0.00001301","PERIAPSIS":"546.085"},{"PERIAPSIS":"546.117","OBJECT_ID":"2020-055AW","TIME_SYSTEM":"UTC","CLASSIFICATION_TYPE":"U","MEAN_MOTION_DOT":"-0.00000310","COUNTRY_CODE":"US","RCS_SIZE":"LARGE","SITE":"AFETR","MEAN_MOTION":"15.06393816","TLE_LINE1":"1 46071U 20055AW  22225.91911057 -.00000310  00000-0 -18934-5 0  9992","PERIOD":"95.593","EPOCH":"2022-08-13T22:03:31.153248","BSTAR":"-0.00000189340000","REV_AT_EPOCH":"11280","OBJECT_TYPE":"PAYLOAD","INCLINATION":"53.0546","RA_OF_ASC_NODE":"189.4651","CENTER_NAME":"EARTH","OBJECT_NAME":"STARLINK-1538","TLE_LINE2":"2 46071  53.0546 189.4651 0001611  66.0785 294.0372 15.06393816112809","REF_FRAME":"TEME","SEMIMAJOR_AXIS":"6925.368","MEAN_ANOMALY":"294.0372","APOAPSIS":"548.348","ARG_OF_PERICENTER":"66.0785","ELEMENT_SET_NO":"999","LAUNCH_DATE":"2020-08-07","MEAN_ELEMENT_THEORY":"SGP4","DECAY_DATE":null,"ECCENTRICITY":"0.00016110","FILE":"3535825","GP_ID":"210161152","MEAN_MOTION_DDOT":"0.0000000000000","EPHEMERIS_TYPE":"0","NORAD_CAT_ID":"46071"},{"PERIAPSIS":"546.122","OBJECT_ID":"2020-055AX","TIME_SYSTEM":"UTC","CLASSIFICATION_TYPE":"U","MEAN_MOTION_DOT":"0.00000839","COUNTRY_CODE":"US","RCS_SIZE":"LARGE","SITE":"AFETR","MEAN_MOTION":"15.06384143","TLE_LINE1":"1 46072U 20055AX  22225.34685200  .00000839  00000-0  75216-4 0  9997","PERIOD":"95.593","EPOCH":"2022-08-13T08:19:28.012800","BSTAR":"0.00007521600000","REV_AT_EPOCH":"11270","OBJECT_TYPE":"PAYLOAD","INCLINATION":"53.0544","RA_OF_ASC_NODE":"192.0540","OBJECT_NAME":"STARLINK-1539","CENTER_NAME":"EARTH","TLE_LINE2":"2 46072  53.0544 192.0540 0001646  63.4217 296.6940 15.06384143112705","REF_FRAME":"TEME","SEMIMAJOR_AXIS":"6925.397","MEAN_ANOMALY":"296.6940","APOAPSIS":"548.402","ARG_OF_PERICENTER":"63.4217","ELEMENT_SET_NO":"999","LAUNCH_DATE":"2020-08-07","MEAN_ELEMENT_THEORY":"SGP4","DECAY_DATE":null,"ECCENTRICITY":"0.00016460","FILE":"3535824","GP_ID":"210135695","MEAN_MOTION_DDOT":"0.0000000000000","EPHEMERIS_TYPE":"0","NORAD_CAT_ID":"46072"},{"OBJECT_TYPE":"PAYLOAD","INCLINATION":"53.0521","REV_AT_EPOCH":"11276","EPOCH":"2022-08-13T16:39:44.306784","BSTAR":"0.00000839390000","MEAN_MOTION":"15.06398804","TLE_LINE1":"1 46073U 20055AY  22225.69426281 -.00000157  00000-0  83939-5 0  9994","PERIOD":"95.592","COUNTRY_CODE":"US","RCS_SIZE":"LARGE","SITE":"AFETR","TIME_SYSTEM":"UTC","OBJECT_ID":"2020-055AY","CLASSIFICATION_TYPE":"U","MEAN_MOTION_DOT":"-0.00000157","PERIAPSIS":"546.062","NORAD_CAT_ID":"46073","GP_ID":"210162154","MEAN_MOTION_DDOT":"0.0000000000000","EPHEMERIS_TYPE":"0","DECAY_DATE":null,"ECCENTRICITY":"0.00016680","FILE":"3535825","MEAN_ELEMENT_THEORY":"SGP4","ELEMENT_SET_NO":"999","LAUNCH_DATE":"2020-08-07","TLE_LINE2":"2 46073  53.0521 190.4911 0001668  64.6645 295.4517 15.06398804112769","REF_FRAME":"TEME","SEMIMAJOR_AXIS":"6925.352","ARG_OF_PERICENTER":"64.6645","APOAPSIS":"548.372","MEAN_ANOMALY":"295.4517","RA_OF_ASC_NODE":"190.4911","CENTER_NAME":"EARTH","OBJECT_NAME":"STARLINK-1542"},{"SEMIMAJOR_AXIS":"6925.320","TLE_LINE2":"2 46074  53.0532 191.7317 0001691  57.8647 302.2506 15.06409279112717","REF_FRAME":"TEME","APOAPSIS":"548.356","MEAN_ANOMALY":"302.2506","ARG_OF_PERICENTER":"57.8647","RA_OF_ASC_NODE":"191.7317","CENTER_NAME":"EARTH","OBJECT_NAME":"STARLINK-1549","MEAN_ELEMENT_THEORY":"SGP4","ELEMENT_SET_NO":"999","LAUNCH_DATE":"2020-08-07","GP_ID":"210136195","EPHEMERIS_TYPE":"0","MEAN_MOTION_DDOT":"0.0000000000000","DECAY_DATE":null,"FILE":"3535824","ECCENTRICITY":"0.00016910","NORAD_CAT_ID":"46074","OBJECT_ID":"2020-055AZ","TIME_SYSTEM":"UTC","MEAN_MOTION_DOT":"0.00003792","CLASSIFICATION_TYPE":"U","PERIAPSIS":"546.014","TLE_LINE1":"1 46074U 20055AZ  22225.41414481  .00003792  00000-0  27327-3 0  9998","MEAN_MOTION":"15.06409279","PERIOD":"95.592","RCS_SIZE":"LARGE","COUNTRY_CODE":"US","SITE":"AFETR","REV_AT_EPOCH":"11271","EPOCH":"2022-08-13T09:56:22.111584","BSTAR":"0.00027327000000","INCLINATION":"53.0532","OBJECT_TYPE":"PAYLOAD"},{"OBJECT_TYPE":"PAYLOAD","INCLINATION":"53.0545","REV_AT_EPOCH":"11279","BSTAR":"-0.00002126200000","EPOCH":"2022-08-13T21:42:16.984800","PERIOD":"95.592","MEAN_MOTION":"15.06394399","TLE_LINE1":"1 46075U 20055BA  22225.90436325 -.00000598  00000-0 -21262-4 0  9990","SITE":"AFETR","COUNTRY_CODE":"US","RCS_SIZE":"LARGE","CLASSIFICATION_TYPE":"U","MEAN_MOTION_DOT":"-0.00000598","OBJECT_ID":"2020-055BA","TIME_SYSTEM":"UTC","PERIAPSIS":"546.068","NORAD_CAT_ID":"46075","EPHEMERIS_TYPE":"0","MEAN_MOTION_DDOT":"0.0000000000000","GP_ID":"210160652","ECCENTRICITY":"0.00016790","FILE":"3535825","DECAY_DATE":null,"MEAN_ELEMENT_THEORY":"SGP4","LAUNCH_DATE":"2020-08-07","ELEMENT_SET_NO":"999","MEAN_ANOMALY":"290.2802","APOAPSIS":"548.393","ARG_OF_PERICENTER":"69.8368","REF_FRAME":"TEME","TLE_LINE2":"2 46075  53.0545 189.5258 0001679  69.8368 290.2802 15.06394399112799","SEMIMAJOR_AXIS":"6925.366","CENTER_NAME":"EARTH","OBJECT_NAME":"STARLINK-1551","RA_OF_ASC_NODE":"189.5258"},{"MEAN_ELEMENT_THEORY":"SGP4","ELEMENT_SET_NO":"999","LAUNCH_DATE":"2020-08-07","SEMIMAJOR_AXIS":"6925.358","REF_FRAME":"TEME","TLE_LINE2":"2 46076  53.0546 191.8159 0002075  56.9986 303.1202 15.06397041112707","MEAN_ANOMALY":"303.1202","APOAPSIS":"548.660","ARG_OF_PERICENTER":"56.9986","RA_OF_ASC_NODE":"191.8159","OBJECT_NAME":"STARLINK-1552","CENTER_NAME":"EARTH","NORAD_CAT_ID":"46076","GP_ID":"210135195","MEAN_MOTION_DDOT":"0.0000000000000","EPHEMERIS_TYPE":"0","DECAY_DATE":null,"FILE":"3535824","ECCENTRICITY":"0.00020750","TLE_LINE1":"1 46076U 20055BB  22225.39938857  .00001004  00000-0  86298-4 0  9992","MEAN_MOTION":"15.06397041","PERIOD":"95.592","RCS_SIZE":"LARGE","COUNTRY_CODE":"US","SITE":"AFETR","OBJECT_ID":"2020-055BB","TIME_SYSTEM":"UTC","MEAN_MOTION_DOT":"0.00001004","CLASSIFICATION_TYPE":"U","PERIAPSIS":"545.786","INCLINATION":"53.0546","OBJECT_TYPE":"PAYLOAD","REV_AT_EPOCH":"11270","EPOCH":"2022-08-13T09:35:07.172448","BSTAR":"0.00008629800000"}];
